STARLINK-31241          
1 59045U 24038Y   26068.28492213  .00000945  00000+0  43846-4 0  9999
2 59045  43.0030  26.0795 0001613 256.1109 103.9563 15.27585159114796
FLOCK 4G-1              
1 62666U 25009BK  26068.75951132  .00013534  00000+0  50654-3 0  9995
2 62666  97.4059 151.3158 0003180 323.1401  36.9619 15.27421081 63725
